[{"OBJECT_NAME":"STARLINK-4474","OBJECT_ID":"2022-101W","EPOCH":"2026-03-09T10:15:08.317440","MEAN_MOTION":15.08853734,"ECCENTRICITY":0.00019503,"INCLINATION":53.2185,"RA_OF_ASC_NODE":65.3038,"ARG_OF_PERICENTER":40.5655,"MEAN_ANOMALY":319.5483,"EPHEMERIS_TYPE":0,"CLASSIFICATION_TYPE":"U","NORAD_CAT_ID":53547,"ELEMENT_SET_NO":999,"REV_AT_EPOCH":19693,"BSTAR":0.00014085464,"MEAN_MOTION_DOT":1.955e-5,"MEAN_MOTION_DDOT":0},{"OBJECT_NAME":"SL-6 R\/B(2)","OBJECT_ID":"1990-055D","EPOCH":"2026-03-09T21:41:59.551872","MEAN_MOTION":15.03595553,"ECCENTRICITY":0.00247741,"INCLINATION":62.7825,"RA_OF_ASC_NODE":253.121,"ARG_OF_PERICENTER":347.1508,"MEAN_ANOMALY":12.8957,"EPHEMERIS_TYPE":0,"CLASSIFICATION_TYPE":"U","NORAD_CAT_ID":20666,"ELEMENT_SET_NO":999,"REV_AT_EPOCH":93822,"BSTAR":0.00020900577,"MEAN_MOTION_DOT":2.688e-5,"MEAN_MOTION_DDOT":0}]
